ORBCOMM FM103           
1 40091U 14040F   24191.51302405  .00000653  00000+0  18197-3 0  9992
2 40091  47.0041 194.5201 0001213 174.4103 185.6795 14.56741938531177
ORBCOMM FM114           
1 41179U 15081A   24192.16126621  .00001212  00000+0  30508-3 0  9994
2 41179  47.0030 100.7021 0001555 230.1243 129.9505 14.56826682454620
ORBCOMM FM119           
1 41180U 15081B   24191.92891330  .00000861  00000+0  22805-3 0  9995
2 41180  47.0023  11.0120 0001934 269.1091  90.9573 14.56728081455797
ORBCOMM FM105           
1 41181U 15081C   24192.13965283  .00000428  00000+0  16802-3 0  9998
2 41181  47.0033 342.5002 0002438 234.4088 125.6565 14.44468301451393
ORBCOMM FM118           
1 41183U 15081E   24192.18529272  .00001160  00000+0  29381-3 0  9999
2 41183  47.0043 100.3198 0001993  19.7334 340.3628 14.56802535454635
ORBCOMM FM112           
1 41184U 15081F   24191.90568692  .00001183  00000+0  29956-3 0  9991
2 41184  47.0006  10.3239 0002169 249.5965 110.4687 14.56713690455736
